{
"type": "FeatureCollection",
"name": "demo_hotspots",
"crs": { "type": "name", "properties": { "name": "urn:ogc:def:crs:OGC:1.3:CRS84" } },
"features": [
{ "type": "Feature", "properties": { "hotspot_id": "HS-000000", "risk_score": 6.4700642879126313, "confidence": 0.3, "species_mix": { "Aves": 1, "Mammalia": 1 }, "endangered_flag": false, "season_curve": [ 1, 1, 1, 1, 1, 1, 1, 1, 1, 1, 1, 1 ], "observation_count": 1, "nearest_highway": "NH-TEST", "intervention": "wildlife_crossing", "model_version": "v0.1-kde" }, "geometry": { "type": "Point", "coordinates": [ 78.89482315777903, 13.745401188473625 ] } },
{ "type": "Feature", "properties": { "hotspot_id": "HS-000001", "risk_score": 72.675835282319269, "confidence": 0.3, "species_mix": { "Aves": 1, "Mammalia": 1 }, "endangered_flag": false, "season_curve": [ 1, 1, 1, 1, 1, 1, 1, 1, 1, 1, 1, 1 ], "observation_count": 1, "nearest_highway": "NH-TEST", "intervention": "wildlife_crossing", "model_version": "v0.1-kde" }, "geometry": { "type": "Point", "coordinates": [ 75.115950885216336, 19.507143064099161 ] } },
{ "type": "Feature", "properties": { "hotspot_id": "HS-000002", "risk_score": 11.029076529544232, "confidence": 0.3, "species_mix": { "Aves": 1, "Mammalia": 1 }, "endangered_flag": false, "season_curve": [ 1, 1, 1, 1, 1, 1, 1, 1, 1, 1, 1, 1 ], "observation_count": 1, "nearest_highway": "NH-TEST", "intervention": "wildlife_crossing", "model_version": "v0.1-kde" }, "geometry": { "type": "Point", "coordinates": [ 76.337157188281751, 17.31993941811405 ] } },
{ "type": "Feature", "properties": { "hotspot_id": "HS-000003", "risk_score": 10.76908125679609, "confidence": 0.3, "species_mix": { "Aves": 1, "Mammalia": 1 }, "endangered_flag": true, "season_curve": [ 1, 1, 1, 1, 1, 1, 1, 1, 1, 1, 1, 1 ], "observation_count": 1, "nearest_highway": "NH-TEST", "intervention": "wildlife_crossing", "model_version": "v0.1-kde" }, "geometry": { "type": "Point", "coordinates": [ 76.930894746349537, 15.986584841970366 ] } },
{ "type": "Feature", "properties": { "hotspot_id": "HS-000004", "risk_score": 9.3628341595573588, "confidence": 0.3, "species_mix": { "Aves": 1, "Mammalia": 1 }, "endangered_flag": false, "season_curve": [ 1, 1, 1, 1, 1, 1, 1, 1, 1, 1, 1, 1 ], "observation_count": 1, "nearest_highway": "NH-TEST", "intervention": "wildlife_crossing", "model_version": "v0.1-kde" }, "geometry": { "type": "Point", "coordinates": [ 77.648559873736289, 11.560186404424366 ] } },
{ "type": "Feature", "properties": { "hotspot_id": "HS-000005", "risk_score": 73.031612823193953, "confidence": 0.3, "species_mix": { "Aves": 1, "Mammalia": 1 }, "endangered_flag": false, "season_curve": [ 1, 1, 1, 1, 1, 1, 1, 1, 1, 1, 1, 1 ], "observation_count": 1, "nearest_highway": "NH-TEST", "intervention": "wildlife_crossing", "model_version": "v0.1-kde" }, "geometry": { "type": "Point", "coordinates": [ 80.281407691144111, 11.559945203362027 ] } },
{ "type": "Feature", "properties": { "hotspot_id": "HS-000006", "risk_score": 0.0, "confidence": 0.3, "species_mix": { "Aves": 1, "Mammalia": 1 }, "endangered_flag": false, "season_curve": [ 1, 1, 1, 1, 1, 1, 1, 1, 1, 1, 1, 1 ], "observation_count": 1, "nearest_highway": "NH-TEST", "intervention": "wildlife_crossing", "model_version": "v0.1-kde" }, "geometry": { "type": "Point", "coordinates": [ 75.597390257266881, 10.580836121681994 ] } },
{ "type": "Feature", "properties": { "hotspot_id": "HS-000007", "risk_score": 0.0035080365968262086, "confidence": 0.3, "species_mix": { "Aves": 1, "Mammalia": 1 }, "endangered_flag": false, "season_curve": [ 1, 1, 1, 1, 1, 1, 1, 1, 1, 1, 1, 1 ], "observation_count": 1, "nearest_highway": "NH-TEST", "intervention": "wildlife_crossing", "model_version": "v0.1-kde" }, "geometry": { "type": "Point", "coordinates": [ 78.11387550730889, 18.66176145774935 ] } },
{ "type": "Feature", "properties": { "hotspot_id": "HS-000008", "risk_score": 2.5824940976468587, "confidence": 0.3, "species_mix": { "Aves": 1, "Mammalia": 1 }, "endangered_flag": false, "season_curve": [ 1, 1, 1, 1, 1, 1, 1, 1, 1, 1, 1, 1 ], "observation_count": 1, "nearest_highway": "NH-TEST", "intervention": "wildlife_crossing", "model_version": "v0.1-kde" }, "geometry": { "type": "Point", "coordinates": [ 78.739316550896334, 16.011150117432088 ] } },
{ "type": "Feature", "properties": { "hotspot_id": "HS-000009", "risk_score": 3.2731496908444879, "confidence": 0.3, "species_mix": { "Aves": 1, "Mammalia": 1 }, "endangered_flag": false, "season_curve": [ 1, 1, 1, 1, 1, 1, 1, 1, 1, 1, 1, 1 ], "observation_count": 1, "nearest_highway": "NH-TEST", "intervention": "wildlife_crossing", "model_version": "v0.1-kde" }, "geometry": { "type": "Point", "coordinates": [ 74.371603301759976, 17.080725777960453 ] } },
{ "type": "Feature", "properties": { "hotspot_id": "HS-000010", "risk_score": 2.7242166889889687, "confidence": 0.3, "species_mix": { "Aves": 1, "Mammalia": 1 }, "endangered_flag": true, "season_curve": [ 1, 1, 1, 1, 1, 1, 1, 1, 1, 1, 1, 1 ], "observation_count": 1, "nearest_highway": "NH-TEST", "intervention": "wildlife_crossing", "model_version": "v0.1-kde" }, "geometry": { "type": "Point", "coordinates": [ 78.860358815211512, 10.205844942958024 ] } },
{ "type": "Feature", "properties": { "hotspot_id": "HS-000011", "risk_score": 72.37304827828909, "confidence": 0.3, "species_mix": { "Aves": 1, "Mammalia": 1 }, "endangered_flag": true, "season_curve": [ 1, 1, 1, 1, 1, 1, 1, 1, 1, 1, 1, 1 ], "observation_count": 1, "nearest_highway": "NH-TEST", "intervention": "wildlife_crossing", "model_version": "v0.1-kde" }, "geometry": { "type": "Point", "coordinates": [ 75.364192989498335, 19.699098521619945 ] } },
{ "type": "Feature", "properties": { "hotspot_id": "HS-000012", "risk_score": 2.7855140934162925, "confidence": 0.3, "species_mix": { "Aves": 1, "Mammalia": 1 }, "endangered_flag": true, "season_curve": [ 1, 1, 1, 1, 1, 1, 1, 1, 1, 1, 1, 1 ], "observation_count": 1, "nearest_highway": "NH-TEST", "intervention": "wildlife_crossing", "model_version": "v0.1-kde" }, "geometry": { "type": "Point", "coordinates": [ 74.520412743882233, 18.324426408004218 ] } },
{ "type": "Feature", "properties": { "hotspot_id": "HS-000013", "risk_score": 99.941216633424119, "confidence": 0.3, "species_mix": { "Aves": 1, "Mammalia": 1 }, "endangered_flag": true, "season_curve": [ 1, 1, 1, 1, 1, 1, 1, 1, 1, 1, 1, 1 ], "observation_count": 1, "nearest_highway": "NH-TEST", "intervention": "wildlife_crossing", "model_version": "v0.1-kde" }, "geometry": { "type": "Point", "coordinates": [ 81.591084298026672, 12.123391106782762 ] } },
{ "type": "Feature", "properties": { "hotspot_id": "HS-000014", "risk_score": 100.0, "confidence": 0.3, "species_mix": { "Aves": 1, "Mammalia": 1 }, "endangered_flag": false, "season_curve": [ 1, 1, 1, 1, 1, 1, 1, 1, 1, 1, 1, 1 ], "observation_count": 1, "nearest_highway": "NH-TEST", "intervention": "wildlife_crossing", "model_version": "v0.1-kde" }, "geometry": { "type": "Point", "coordinates": [ 81.725056264596475, 11.818249672071007 ] } },
{ "type": "Feature", "properties": { "hotspot_id": "HS-000015", "risk_score": 73.900958768720955, "confidence": 0.3, "species_mix": { "Aves": 1, "Mammalia": 1 }, "endangered_flag": true, "season_curve": [ 1, 1, 1, 1, 1, 1, 1, 1, 1, 1, 1, 1 ], "observation_count": 1, "nearest_highway": "NH-TEST", "intervention": "wildlife_crossing", "model_version": "v0.1-kde" }, "geometry": { "type": "Point", "coordinates": [ 80.46717878493169, 11.834045098534338 ] } },
{ "type": "Feature", "properties": { "hotspot_id": "HS-000016", "risk_score": 4.832790932213773, "confidence": 0.3, "species_mix": { "Aves": 1, "Mammalia": 1 }, "endangered_flag": false, "season_curve": [ 1, 1, 1, 1, 1, 1, 1, 1, 1, 1, 1, 1 ], "observation_count": 1, "nearest_highway": "NH-TEST", "intervention": "wildlife_crossing", "model_version": "v0.1-kde" }, "geometry": { "type": "Point", "coordinates": [ 76.436910153386961, 13.042422429595376 ] } },
{ "type": "Feature", "properties": { "hotspot_id": "HS-000017", "risk_score": 0.77557220086126488, "confidence": 0.3, "species_mix": { "Aves": 1, "Mammalia": 1 }, "endangered_flag": false, "season_curve": [ 1, 1, 1, 1, 1, 1, 1, 1, 1, 1, 1, 1 ], "observation_count": 1, "nearest_highway": "NH-TEST", "intervention": "wildlife_crossing", "model_version": "v0.1-kde" }, "geometry": { "type": "Point", "coordinates": [ 74.781376912051073, 15.247564316322379 ] } },
{ "type": "Feature", "properties": { "hotspot_id": "HS-000018", "risk_score": 8.7990317921799708, "confidence": 0.3, "species_mix": { "Aves": 1, "Mammalia": 1 }, "endangered_flag": false, "season_curve": [ 1, 1, 1, 1, 1, 1, 1, 1, 1, 1, 1, 1 ], "observation_count": 1, "nearest_highway": "NH-TEST", "intervention": "wildlife_crossing", "model_version": "v0.1-kde" }, "geometry": { "type": "Point", "coordinates": [ 79.473864212097254, 14.319450186421157 ] } },
{ "type": "Feature", "properties": { "hotspot_id": "HS-000019", "risk_score": 7.1946272125888511, "confidence": 0.3, "species_mix": { "Aves": 1, "Mammalia": 1 }, "endangered_flag": false, "season_curve": [ 1, 1, 1, 1, 1, 1, 1, 1, 1, 1, 1, 1 ], "observation_count": 1, "nearest_highway": "NH-TEST", "intervention": "wildlife_crossing", "model_version": "v0.1-kde" }, "geometry": { "type": "Point", "coordinates": [ 77.521219949916812, 12.912291401980418 ] } }
]
}
