{
"type": "FeatureCollection",
"name": "demo_observations",
"crs": { "type": "name", "properties": { "name": "urn:ogc:def:crs:OGC:1.3:CRS84" } },
"features": [
{ "type": "Feature", "properties": { "observation_id": 4500, "species": "Indian hare", "taxon_class": "Mammalia", "observed_on": "2024-11-23", "quality_grade": "research", "longitude": 76.521521951337334, "latitude": 11.831962139080032, "source": "inaturalist", "url": "", "place_id": 6903, "endangered_flag": false, "nearest_highway": "NH-766" }, "geometry": { "type": "Point", "coordinates": [ 76.521521951337334, 11.831962139080032 ] } },
{ "type": "Feature", "properties": { "observation_id": 4501, "species": "Indian hare", "taxon_class": "Mammalia", "observed_on": "2024-01-24", "quality_grade": "research", "longitude": 76.545380373189715, "latitude": 11.854696695758408, "source": "inaturalist", "url": "", "place_id": 6903, "endangered_flag": true, "nearest_highway": "NH-766" }, "geometry": { "type": "Point", "coordinates": [ 76.545380373189715, 11.854696695758408 ] } },
{ "type": "Feature", "properties": { "observation_id": 4502, "species": "Indian peafowl", "taxon_class": "Mammalia", "observed_on": "2024-08-16", "quality_grade": "research", "longitude": 76.433547450352151, "latitude": 11.747269164892625, "source": "inaturalist", "url": "", "place_id": 6903, "endangered_flag": false, "nearest_highway": "NH-766" }, "geometry": { "type": "Point", "coordinates": [ 76.433547450352151, 11.747269164892625 ] } },
{ "type": "Feature", "properties": { "observation_id": 4503, "species": "Chital", "taxon_class": "Mammalia", "observed_on": "2024-01-05", "quality_grade": "research", "longitude": 76.843848437169186, "latitude": 12.136922707442718, "source": "inaturalist", "url": "", "place_id": 6903, "endangered_flag": false, "nearest_highway": "NH-766" }, "geometry": { "type": "Point", "coordinates": [ 76.843848437169186, 12.136922707442718 ] } },
{ "type": "Feature", "properties": { "observation_id": 4504, "species": "Indian peafowl", "taxon_class": "Mammalia", "observed_on": "2024-08-02", "quality_grade": "research", "longitude": 76.391476208166083, "latitude": 11.732615402666132, "source": "inaturalist", "url": "", "place_id": 6903, "endangered_flag": false, "nearest_highway": "NH-766" }, "geometry": { "type": "Point", "coordinates": [ 76.391476208166083, 11.732615402666132 ] } },
{ "type": "Feature", "properties": { "observation_id": 4505, "species": "Wild boar", "taxon_class": "Aves", "observed_on": "2024-10-17", "quality_grade": "research", "longitude": 76.894260789763038, "latitude": 12.189520979876582, "source": "inaturalist", "url": "", "place_id": 6903, "endangered_flag": false, "nearest_highway": "NH-766" }, "geometry": { "type": "Point", "coordinates": [ 76.894260789763038, 12.189520979876582 ] } },
{ "type": "Feature", "properties": { "observation_id": 4506, "species": "Bonnet macaque", "taxon_class": "Mammalia", "observed_on": "2024-08-18", "quality_grade": "research", "longitude": 76.550893351384246, "latitude": 11.878982370506133, "source": "inaturalist", "url": "", "place_id": 6903, "endangered_flag": false, "nearest_highway": "NH-766" }, "geometry": { "type": "Point", "coordinates": [ 76.550893351384246, 11.878982370506133 ] } },
{ "type": "Feature", "properties": { "observation_id": 4507, "species": "Bonnet macaque", "taxon_class": "Mammalia", "observed_on": "2024-08-08", "quality_grade": "research", "longitude": 76.266488560665636, "latitude": 11.573430149506351, "source": "inaturalist", "url": "", "place_id": 6903, "endangered_flag": true, "nearest_highway": "NH-766" }, "geometry": { "type": "Point", "coordinates": [ 76.266488560665636, 11.573430149506351 ] } },
{ "type": "Feature", "properties": { "observation_id": 4508, "species": "Bonnet macaque", "taxon_class": "Mammalia", "observed_on": "2024-08-28", "quality_grade": "research", "longitude": 76.768977844648447, "latitude": 12.091893090375416, "source": "inaturalist", "url": "", "place_id": 6903, "endangered_flag": false, "nearest_highway": "NH-766" }, "geometry": { "type": "Point", "coordinates": [ 76.768977844648447, 12.091893090375416 ] } },
{ "type": "Feature", "properties": { "observation_id": 4509, "species": "Wild boar", "taxon_class": "Aves", "observed_on": "2024-10-08", "quality_grade": "research", "longitude": 76.792020483099421, "latitude": 12.111180241504764, "source": "inaturalist", "url": "", "place_id": 6903, "endangered_flag": false, "nearest_highway": "NH-766" }, "geometry": { "type": "Point", "coordinates": [ 76.792020483099421, 12.111180241504764 ] } },
{ "type": "Feature", "properties": { "observation_id": 4510, "species": "Bonnet macaque", "taxon_class": "Mammalia", "observed_on": "2024-03-09", "quality_grade": "research", "longitude": 76.229970828255048, "latitude": 11.535574212584372, "source": "inaturalist", "url": "", "place_id": 6903, "endangered_flag": false, "nearest_highway": "NH-766" }, "geometry": { "type": "Point", "coordinates": [ 76.229970828255048, 11.535574212584372 ] } },
{ "type": "Feature", "properties": { "observation_id": 4511, "species": "Indian hare", "taxon_class": "Mammalia", "observed_on": "2024-07-08", "quality_grade": "research", "longitude": 76.262870669053015, "latitude": 11.546665584146711, "source": "inaturalist", "url": "", "place_id": 6903, "endangered_flag": false, "nearest_highway": "NH-766" }, "geometry": { "type": "Point", "coordinates": [ 76.262870669053015, 11.546665584146711 ] } },
{ "type": "Feature", "properties": { "observation_id": 4512, "species": "Chital", "taxon_class": "Mammalia", "observed_on": "2024-02-26", "quality_grade": "research", "longitude": 76.318263118041273, "latitude": 11.620053681774605, "source": "inaturalist", "url": "", "place_id": 6903, "endangered_flag": false, "nearest_highway": "NH-766" }, "geometry": { "type": "Point", "coordinates": [ 76.318263118041273, 11.620053681774605 ] } },
{ "type": "Feature", "properties": { "observation_id": 4513, "species": "Indian peafowl", "taxon_class": "Mammalia", "observed_on": "2024-10-19", "quality_grade": "research", "longitude": 76.808752500330954, "latitude": 12.14245683634274, "source": "inaturalist", "url": "", "place_id": 6903, "endangered_flag": false, "nearest_highway": "NH-766" }, "geometry": { "type": "Point", "coordinates": [ 76.808752500330954, 12.14245683634274 ] } },
{ "type": "Feature", "properties": { "observation_id": 4514, "species": "Indian hare", "taxon_class": "Mammalia", "observed_on": "2024-05-07", "quality_grade": "research", "longitude": 76.516538190492568, "latitude": 11.826263833347255, "source": "inaturalist", "url": "", "place_id": 6903, "endangered_flag": false, "nearest_highway": "NH-766" }, "geometry": { "type": "Point", "coordinates": [ 76.516538190492568, 11.826263833347255 ] } },
{ "type": "Feature", "properties": { "observation_id": 4515, "species": "Wild boar", "taxon_class": "Aves", "observed_on": "2024-12-28", "quality_grade": "research", "longitude": 76.677228887790108, "latitude": 11.997829036911442, "source": "inaturalist", "url": "", "place_id": 6903, "endangered_flag": true, "nearest_highway": "NH-766" }, "geometry": { "type": "Point", "coordinates": [ 76.677228887790108, 11.997829036911442 ] } },
{ "type": "Feature", "properties": { "observation_id": 4516, "species": "Bonnet macaque", "taxon_class": "Mammalia", "observed_on": "2024-07-20", "quality_grade": "research", "longitude": 76.772954181600426, "latitude": 12.076838690807364, "source": "inaturalist", "url": "", "place_id": 6903, "endangered_flag": true, "nearest_highway": "NH-766" }, "geometry": { "type": "Point", "coordinates": [ 76.772954181600426, 12.076838690807364 ] } },
{ "type": "Feature", "properties": { "observation_id": 4517, "species": "Chital", "taxon_class": "Mammalia", "observed_on": "2024-01-25", "quality_grade": "research", "longitude": 76.67918176618069, "latitude": 11.991433377213571, "source": "inaturalist", "url": "", "place_id": 6903, "endangered_flag": false, "nearest_highway": "NH-766" }, "geometry": { "type": "Point", "coordinates": [ 76.67918176618069, 11.991433377213571 ] } },
{ "type": "Feature", "properties": { "observation_id": 4518, "species": "Indian hare", "taxon_class": "Mammalia", "observed_on": "2024-07-10", "quality_grade": "research", "longitude": 76.590265947362553, "latitude": 11.933450830763761, "source": "inaturalist", "url": "", "place_id": 6903, "endangered_flag": false, "nearest_highway": "NH-766" }, "geometry": { "type": "Point", "coordinates": [ 76.590265947362553, 11.933450830763761 ] } },
{ "type": "Feature", "properties": { "observation_id": 4519, "species": "Bonnet macaque", "taxon_class": "Mammalia", "observed_on": "2024-08-17", "quality_grade": "research", "longitude": 76.863597497708994, "latitude": 12.15297722024731, "source": "inaturalist", "url": "", "place_id": 6903, "endangered_flag": false, "nearest_highway": "NH-766" }, "geometry": { "type": "Point", "coordinates": [ 76.863597497708994, 12.15297722024731 ] } },
{ "type": "Feature", "properties": { "observation_id": 4520, "species": "Chital", "taxon_class": "Mammalia", "observed_on": "2024-08-17", "quality_grade": "research", "longitude": 76.709733004082793, "latitude": 12.03895162351084, "source": "inaturalist", "url": "", "place_id": 6903, "endangered_flag": false, "nearest_highway": "NH-766" }, "geometry": { "type": "Point", "coordinates": [ 76.709733004082793, 12.03895162351084 ] } },
{ "type": "Feature", "properties": { "observation_id": 4521, "species": "Indian peafowl", "taxon_class": "Mammalia", "observed_on": "2024-08-12", "quality_grade": "research", "longitude": 76.268586133365758, "latitude": 11.578694536294929, "source": "inaturalist", "url": "", "place_id": 6903, "endangered_flag": false, "nearest_highway": "NH-766" }, "geometry": { "type": "Point", "coordinates": [ 76.268586133365758, 11.578694536294929 ] } },
{ "type": "Feature", "properties": { "observation_id": 4500, "species": "Wild boar", "taxon_class": "Aves", "observed_on": "2024-04-06", "quality_grade": "research", "longitude": 77.353771828519982, "latitude": 13.133429827778157, "source": "inaturalist", "url": "", "place_id": 6903, "endangered_flag": false, "nearest_highway": "NH-48" }, "geometry": { "type": "Point", "coordinates": [ 77.353771828519982, 13.133429827778157 ] } },
{ "type": "Feature", "properties": { "observation_id": 4501, "species": "Chital", "taxon_class": "Mammalia", "observed_on": "2024-09-28", "quality_grade": "research", "longitude": 77.295637483410474, "latitude": 13.071032650475807, "source": "inaturalist", "url": "", "place_id": 6903, "endangered_flag": false, "nearest_highway": "NH-48" }, "geometry": { "type": "Point", "coordinates": [ 77.295637483410474, 13.071032650475807 ] } },
{ "type": "Feature", "properties": { "observation_id": 4502, "species": "Indian peafowl", "taxon_class": "Mammalia", "observed_on": "2024-09-19", "quality_grade": "research", "longitude": 77.691282725836018, "latitude": 13.417523551370627, "source": "inaturalist", "url": "", "place_id": 6903, "endangered_flag": false, "nearest_highway": "NH-48" }, "geometry": { "type": "Point", "coordinates": [ 77.691282725836018, 13.417523551370627 ] } },
{ "type": "Feature", "properties": { "observation_id": 4503, "species": "Indian peafowl", "taxon_class": "Mammalia", "observed_on": "2024-01-11", "quality_grade": "research", "longitude": 77.380781706146365, "latitude": 13.17854684078493, "source": "inaturalist", "url": "", "place_id": 6903, "endangered_flag": false, "nearest_highway": "NH-48" }, "geometry": { "type": "Point", "coordinates": [ 77.380781706146365, 13.17854684078493 ] } },
{ "type": "Feature", "properties": { "observation_id": 4504, "species": "Bonnet macaque", "taxon_class": "Mammalia", "observed_on": "2024-04-26", "quality_grade": "research", "longitude": 77.498068561906322, "latitude": 13.251242546712415, "source": "inaturalist", "url": "", "place_id": 6903, "endangered_flag": true, "nearest_highway": "NH-48" }, "geometry": { "type": "Point", "coordinates": [ 77.498068561906322, 13.251242546712415 ] } },
{ "type": "Feature", "properties": { "observation_id": 4505, "species": "Bonnet macaque", "taxon_class": "Mammalia", "observed_on": "2024-09-05", "quality_grade": "research", "longitude": 77.262121099327317, "latitude": 13.052940520199137, "source": "inaturalist", "url": "", "place_id": 6903, "endangered_flag": true, "nearest_highway": "NH-48" }, "geometry": { "type": "Point", "coordinates": [ 77.262121099327317, 13.052940520199137 ] } }
]
}
