{
  "type": "FeatureCollection",
  "features": [
    {
      "type": "Feature",
      "geometry": {
        "type": "LineString",
        "coordinates": [
          [
            74.84518399999999,
            21.38408542857143
          ],
          [
            74.675942,
            21.418425
          ]
        ]
      },
      "properties": {
        "segment_id": "SEG-000000",
        "highway_name": "NH-753BE",
        "risk_score": 57,
        "confidence": 0.3,
        "observation_count": 15,
        "road_class_score": 2,
        "road_length_km": 19.2,
        "endangered_flag": false
      }
    },
    {
      "type": "Feature",
      "geometry": {
        "type": "LineString",
        "coordinates": [
          [
            74.84518399999999,
            21.38408542857143
          ],
          [
            74.728037,
            21.294268
          ]
        ]
      },
      "properties": {
        "segment_id": "SEG-000001",
        "highway_name": "NH-753BE",
        "risk_score": 57,
        "confidence": 0.3,
        "observation_count": 15,
        "road_class_score": 2,
        "road_length_km": 16.4,
        "endangered_flag": false
      }
    },
    {
      "type": "Feature",
      "geometry": {
        "type": "LineString",
        "coordinates": [
          [
            77.99678094594593,
            21.30639778378378
          ],
          [
            77.92152330434784,
            21.147417869565214
          ]
        ]
      },
      "properties": {
        "segment_id": "SEG-000002",
        "highway_name": "NH-353K",
        "risk_score": 100,
        "confidence": 0.3,
        "observation_count": 60,
        "road_class_score": 2,
        "road_length_km": 19.5,
        "endangered_flag": false
      }
    },
    {
      "type": "Feature",
      "geometry": {
        "type": "LineString",
        "coordinates": [
          [
            77.99678094594593,
            21.30639778378378
          ],
          [
            77.96878932653061,
            21.252529040816324
          ]
        ]
      },
      "properties": {
        "segment_id": "SEG-000003",
        "highway_name": "NH-353K",
        "risk_score": 100,
        "confidence": 0.3,
        "observation_count": 86,
        "road_class_score": 2,
        "road_length_km": 6.7,
        "endangered_flag": false
      }
    },
    {
      "type": "Feature",
      "geometry": {
        "type": "LineString",
        "coordinates": [
          [
            77.99678094594593,
            21.30639778378378
          ],
          [
            78.02438153846153,
            21.24242076923077
          ]
        ]
      },
      "properties": {
        "segment_id": "SEG-000004",
        "highway_name": "NH-353K",
        "risk_score": 97,
        "confidence": 0.3,
        "observation_count": 50,
        "road_class_score": 2,
        "road_length_km": 7.7,
        "endangered_flag": false
      }
    },
    {
      "type": "Feature",
      "geometry": {
        "type": "LineString",
        "coordinates": [
          [
            77.99678094594593,
            21.30639778378378
          ],
          [
            77.9219203,
            21.2867935
          ]
        ]
      },
      "properties": {
        "segment_id": "SEG-000005",
        "highway_name": "NH-353K",
        "risk_score": 85,
        "confidence": 0.3,
        "observation_count": 47,
        "road_class_score": 2,
        "road_length_km": 8.6,
        "endangered_flag": false
      }
    },
    {
      "type": "Feature",
      "geometry": {
        "type": "LineString",
        "coordinates": [
          [
            77.99678094594593,
            21.30639778378378
          ],
          [
            78.09126066666666,
            21.407551333333334
          ]
        ]
      },
      "properties": {
        "segment_id": "SEG-000006",
        "highway_name": "NH-353K",
        "risk_score": 62,
        "confidence": 0.3,
        "observation_count": 40,
        "road_class_score": 2,
        "road_length_km": 15.4,
        "endangered_flag": false
      }
    },
    {
      "type": "Feature",
      "geometry": {
        "type": "LineString",
        "coordinates": [
          [
            77.99678094594593,
            21.30639778378378
          ],
          [
            78.1792,
            21.1673
          ]
        ]
      },
      "properties": {
        "segment_id": "SEG-000007",
        "highway_name": "NH-353K",
        "risk_score": 57,
        "confidence": 0.3,
        "observation_count": 38,
        "road_class_score": 2,
        "road_length_km": 25.5,
        "endangered_flag": false
      }
    },
    {
      "type": "Feature",
      "geometry": {
        "type": "LineString",
        "coordinates": [
          [
            77.99678094594593,
            21.30639778378378
          ],
          [
            78.108931,
            21.094826
          ]
        ]
      },
      "properties": {
        "segment_id": "SEG-000008",
        "highway_name": "NH-353K",
        "risk_score": 57,
        "confidence": 0.3,
        "observation_count": 38,
        "road_class_score": 2,
        "road_length_km": 26.6,
        "endangered_flag": false
      }
    },
    {
      "type": "Feature",
      "geometry": {
        "type": "LineString",
        "coordinates": [
          [
            77.92152330434784,
            21.147417869565214
          ],
          [
            77.81374045901639,
            20.92912208196721
          ]
        ]
      },
      "properties": {
        "segment_id": "SEG-000009",
        "highway_name": "NH-353K",
        "risk_score": 100,
        "confidence": 0.3,
        "observation_count": 145,
        "road_class_score": 2,
        "road_length_km": 27.0,
        "endangered_flag": false
      }
    },
    {
      "type": "Feature",
      "geometry": {
        "type": "LineString",
        "coordinates": [
          [
            77.92152330434784,
            21.147417869565214
          ],
          [
            77.89371959230769,
            20.913895023076922
          ]
        ]
      },
      "properties": {
        "segment_id": "SEG-000010",
        "highway_name": "NH-353K",
        "risk_score": 100,
        "confidence": 0.3,
        "observation_count": 153,
        "road_class_score": 2,
        "road_length_km": 26.1,
        "endangered_flag": false
      }
    },
    {
      "type": "Feature",
      "geometry": {
        "type": "LineString",
        "coordinates": [
          [
            77.92152330434784,
            21.147417869565214
          ],
          [
            77.96878932653061,
            21.252529040816324
          ]
        ]
      },
      "properties": {
        "segment_id": "SEG-000011",
        "highway_name": "NH-353K",
        "risk_score": 100,
        "confidence": 0.3,
        "observation_count": 72,
        "road_class_score": 2,
        "road_length_km": 12.8,
        "endangered_flag": false
      }
    },
    {
      "type": "Feature",
      "geometry": {
        "type": "LineString",
        "coordinates": [
          [
            77.92152330434784,
            21.147417869565214
          ],
          [
            77.83243800000001,
            20.998446461538467
          ]
        ]
      },
      "properties": {
        "segment_id": "SEG-000012",
        "highway_name": "NH-353K",
        "risk_score": 100,
        "confidence": 0.3,
        "observation_count": 75,
        "road_class_score": 2,
        "road_length_km": 19.3,
        "endangered_flag": false
      }
    },
    {
      "type": "Feature",
      "geometry": {
        "type": "LineString",
        "coordinates": [
          [
            77.92152330434784,
            21.147417869565214
          ],
          [
            77.87316575641026,
            20.88614930769231
          ]
        ]
      },
      "properties": {
        "segment_id": "SEG-000013",
        "highway_name": "NH-353K",
        "risk_score": 100,
        "confidence": 0.3,
        "observation_count": 101,
        "road_class_score": 2,
        "road_length_km": 29.5,
        "endangered_flag": false
      }
    },
    {
      "type": "Feature",
      "geometry": {
        "type": "LineString",
        "coordinates": [
          [
            77.92152330434784,
            21.147417869565214
          ],
          [
            77.99402617948718,
            20.935922641025645
          ]
        ]
      },
      "properties": {
        "segment_id": "SEG-000014",
        "highway_name": "NH-353K",
        "risk_score": 100,
        "confidence": 0.3,
        "observation_count": 62,
        "road_class_score": 2,
        "road_length_km": 24.8,
        "endangered_flag": false
      }
    },
    {
      "type": "Feature",
      "geometry": {
        "type": "LineString",
        "coordinates": [
          [
            77.92152330434784,
            21.147417869565214
          ],
          [
            77.70905655555555,
            20.99931827777778
          ]
        ]
      },
      "properties": {
        "segment_id": "SEG-000015",
        "highway_name": "NH-353K",
        "risk_score": 100,
        "confidence": 0.3,
        "observation_count": 41,
        "road_class_score": 2,
        "road_length_km": 28.7,
        "endangered_flag": false
      }
    },
    {
      "type": "Feature",
      "geometry": {
        "type": "LineString",
        "coordinates": [
          [
            77.92152330434784,
            21.147417869565214
          ],
          [
            78.02438153846153,
            21.24242076923077
          ]
        ]
      },
      "properties": {
        "segment_id": "SEG-000016",
        "highway_name": "NH-353K",
        "risk_score": 97,
        "confidence": 0.3,
        "observation_count": 36,
        "road_class_score": 2,
        "road_length_km": 15.5,
        "endangered_flag": false
      }
    },
    {
      "type": "Feature",
      "geometry": {
        "type": "LineString",
        "coordinates": [
          [
            77.92152330434784,
            21.147417869565214
          ],
          [
            78.07366133333333,
            20.9435125
          ]
        ]
      },
      "properties": {
        "segment_id": "SEG-000017",
        "highway_name": "NH-353K",
        "risk_score": 95,
        "confidence": 0.3,
        "observation_count": 35,
        "road_class_score": 2,
        "road_length_km": 28.2,
        "endangered_flag": false
      }
    },
    {
      "type": "Feature",
      "geometry": {
        "type": "LineString",
        "coordinates": [
          [
            77.92152330434784,
            21.147417869565214
          ],
          [
            77.9219203,
            21.2867935
          ]
        ]
      },
      "properties": {
        "segment_id": "SEG-000018",
        "highway_name": "NH-353K",
        "risk_score": 85,
        "confidence": 0.3,
        "observation_count": 33,
        "road_class_score": 2,
        "road_length_km": 15.5,
        "endangered_flag": false
      }
    },
    {
      "type": "Feature",
      "geometry": {
        "type": "LineString",
        "coordinates": [
          [
            77.92152330434784,
            21.147417869565214
          ],
          [
            77.77924900000001,
            21.05542975
          ]
        ]
      },
      "properties": {
        "segment_id": "SEG-000019",
        "highway_name": "NH-353K",
        "risk_score": 70,
        "confidence": 0.3,
        "observation_count": 27,
        "road_class_score": 2,
        "road_length_km": 18.8,
        "endangered_flag": false
      }
    },
    {
      "type": "Feature",
      "geometry": {
        "type": "LineString",
        "coordinates": [
          [
            77.92152330434784,
            21.147417869565214
          ],
          [
            78.1792,
            21.1673
          ]
        ]
      },
      "properties": {
        "segment_id": "SEG-000020",
        "highway_name": "NH-353K",
        "risk_score": 57,
        "confidence": 0.3,
        "observation_count": 24,
        "road_class_score": 2,
        "road_length_km": 28.7,
        "endangered_flag": false
      }
    },
    {
      "type": "Feature",
      "geometry": {
        "type": "LineString",
        "coordinates": [
          [
            77.92152330434784,
            21.147417869565214
          ],
          [
            78.108931,
            21.094826
          ]
        ]
      },
      "properties": {
        "segment_id": "SEG-000021",
        "highway_name": "NH-353K",
        "risk_score": 57,
        "confidence": 0.3,
        "observation_count": 24,
        "road_class_score": 2,
        "road_length_km": 21.6,
        "endangered_flag": false
      }
    },
    {
      "type": "Feature",
      "geometry": {
        "type": "LineString",
        "coordinates": [
          [
            77.81374045901639,
            20.92912208196721
          ],
          [
            77.75310040000001,
            20.89325492
          ]
        ]
      },
      "properties": {
        "segment_id": "SEG-000022",
        "highway_name": "SH-243",
        "risk_score": 100,
        "confidence": 0.3,
        "observation_count": 147,
        "road_class_score": 2,
        "road_length_km": 7.8,
        "endangered_flag": false
      }
    },
    {
      "type": "Feature",
      "geometry": {
        "type": "LineString",
        "coordinates": [
          [
            77.81374045901639,
            20.92912208196721
          ],
          [
            77.89371959230769,
            20.913895023076922
          ]
        ]
      },
      "properties": {
        "segment_id": "SEG-000023",
        "highway_name": "SH-243",
        "risk_score": 100,
        "confidence": 0.3,
        "observation_count": 252,
        "road_class_score": 2,
        "road_length_km": 9.0,
        "endangered_flag": false
      }
    },
    {
      "type": "Feature",
      "geometry": {
        "type": "LineString",
        "coordinates": [
          [
            77.81374045901639,
            20.92912208196721
          ],
          [
            77.83243800000001,
            20.998446461538467
          ]
        ]
      },
      "properties": {
        "segment_id": "SEG-000024",
        "highway_name": "SH-243",
        "risk_score": 100,
        "confidence": 0.3,
        "observation_count": 174,
        "road_class_score": 2,
        "road_length_km": 8.0,
        "endangered_flag": false
      }
    },
    {
      "type": "Feature",
      "geometry": {
        "type": "LineString",
        "coordinates": [
          [
            77.81374045901639,
            20.92912208196721
          ],
          [
            77.87316575641026,
            20.88614930769231
          ]
        ]
      },
      "properties": {
        "segment_id": "SEG-000025",
        "highway_name": "SH-243",
        "risk_score": 100,
        "confidence": 0.3,
        "observation_count": 200,
        "road_class_score": 2,
        "road_length_km": 8.1,
        "endangered_flag": false
      }
    },
    {
      "type": "Feature",
      "geometry": {
        "type": "LineString",
        "coordinates": [
          [
            77.81374045901639,
            20.92912208196721
          ],
          [
            77.99402617948718,
            20.935922641025645
          ]
        ]
      },
      "properties": {
        "segment_id": "SEG-000026",
        "highway_name": "SH-243",
        "risk_score": 100,
        "confidence": 0.3,
        "observation_count": 161,
        "road_class_score": 2,
        "road_length_km": 20.0,
        "endangered_flag": false
      }
    },
    {
      "type": "Feature",
      "geometry": {
        "type": "LineString",
        "coordinates": [
          [
            77.81374045901639,
            20.92912208196721
          ],
          [
            77.70905655555555,
            20.99931827777778
          ]
        ]
      },
      "properties": {
        "segment_id": "SEG-000027",
        "highway_name": "SH-243",
        "risk_score": 100,
        "confidence": 0.3,
        "observation_count": 140,
        "road_class_score": 2,
        "road_length_km": 14.0,
        "endangered_flag": false
      }
    },
    {
      "type": "Feature",
      "geometry": {
        "type": "LineString",
        "coordinates": [
          [
            77.81374045901639,
            20.92912208196721
          ],
          [
            78.07366133333333,
            20.9435125
          ]
        ]
      },
      "properties": {
        "segment_id": "SEG-000028",
        "highway_name": "SH-243",
        "risk_score": 95,
        "confidence": 0.3,
        "observation_count": 134,
        "road_class_score": 2,
        "road_length_km": 28.9,
        "endangered_flag": false
      }
    },
    {
      "type": "Feature",
      "geometry": {
        "type": "LineString",
        "coordinates": [
          [
            77.81374045901639,
            20.92912208196721
          ],
          [
            78.1063781111111,
            20.897919666666667
          ]
        ]
      },
      "properties": {
        "segment_id": "SEG-000029",
        "highway_name": "SH-243",
        "risk_score": 87,
        "confidence": 0.3,
        "observation_count": 131,
        "road_class_score": 2,
        "road_length_km": 32.7,
        "endangered_flag": false
      }
    },
    {
      "type": "Feature",
      "geometry": {
        "type": "LineString",
        "coordinates": [
          [
            77.81374045901639,
            20.92912208196721
          ],
          [
            77.594937,
            21.118275666666666
          ]
        ]
      },
      "properties": {
        "segment_id": "SEG-000030",
        "highway_name": "SH-243",
        "risk_score": 75,
        "confidence": 0.3,
        "observation_count": 128,
        "road_class_score": 2,
        "road_length_km": 32.1,
        "endangered_flag": false
      }
    },
    {
      "type": "Feature",
      "geometry": {
        "type": "LineString",
        "coordinates": [
          [
            77.81374045901639,
            20.92912208196721
          ],
          [
            77.77924900000001,
            21.05542975
          ]
        ]
      },
      "properties": {
        "segment_id": "SEG-000031",
        "highway_name": "SH-243",
        "risk_score": 70,
        "confidence": 0.3,
        "observation_count": 126,
        "road_class_score": 2,
        "road_length_km": 14.5,
        "endangered_flag": false
      }
    },
    {
      "type": "Feature",
      "geometry": {
        "type": "LineString",
        "coordinates": [
          [
            77.81374045901639,
            20.92912208196721
          ],
          [
            77.58978533333334,
            20.95581866666667
          ]
        ]
      },
      "properties": {
        "segment_id": "SEG-000032",
        "highway_name": "SH-243",
        "risk_score": 67,
        "confidence": 0.3,
        "observation_count": 125,
        "road_class_score": 2,
        "road_length_km": 25.0,
        "endangered_flag": false
      }
    },
    {
      "type": "Feature",
      "geometry": {
        "type": "LineString",
        "coordinates": [
          [
            77.75310040000001,
            20.89325492
          ],
          [
            77.89371959230769,
            20.913895023076922
          ]
        ]
      },
      "properties": {
        "segment_id": "SEG-000033",
        "highway_name": "unknown",
        "risk_score": 100,
        "confidence": 0.3,
        "observation_count": 155,
        "road_class_score": 2,
        "road_length_km": 15.8,
        "endangered_flag": false
      }
    },
    {
      "type": "Feature",
      "geometry": {
        "type": "LineString",
        "coordinates": [
          [
            77.75310040000001,
            20.89325492
          ],
          [
            77.83243800000001,
            20.998446461538467
          ]
        ]
      },
      "properties": {
        "segment_id": "SEG-000034",
        "highway_name": "unknown",
        "risk_score": 100,
        "confidence": 0.3,
        "observation_count": 77,
        "road_class_score": 2,
        "road_length_km": 14.6,
        "endangered_flag": false
      }
    },
    {
      "type": "Feature",
      "geometry": {
        "type": "LineString",
        "coordinates": [
          [
            77.75310040000001,
            20.89325492
          ],
          [
            77.87316575641026,
            20.88614930769231
          ]
        ]
      },
      "properties": {
        "segment_id": "SEG-000035",
        "highway_name": "unknown",
        "risk_score": 100,
        "confidence": 0.3,
        "observation_count": 103,
        "road_class_score": 2,
        "road_length_km": 13.4,
        "endangered_flag": false
      }
    },
    {
      "type": "Feature",
      "geometry": {
        "type": "LineString",
        "coordinates": [
          [
            77.75310040000001,
            20.89325492
          ],
          [
            77.99402617948718,
            20.935922641025645
          ]
        ]
      },
      "properties": {
        "segment_id": "SEG-000036",
        "highway_name": "unknown",
        "risk_score": 100,
        "confidence": 0.3,
        "observation_count": 64,
        "road_class_score": 2,
        "road_length_km": 27.2,
        "endangered_flag": false
      }
    },
    {
      "type": "Feature",
      "geometry": {
        "type": "LineString",
        "coordinates": [
          [
            77.75310040000001,
            20.89325492
          ],
          [
            77.70905655555555,
            20.99931827777778
          ]
        ]
      },
      "properties": {
        "segment_id": "SEG-000037",
        "highway_name": "unknown",
        "risk_score": 100,
        "confidence": 0.3,
        "observation_count": 43,
        "road_class_score": 2,
        "road_length_km": 12.7,
        "endangered_flag": false
      }
    },
    {
      "type": "Feature",
      "geometry": {
        "type": "LineString",
        "coordinates": [
          [
            77.75310040000001,
            20.89325492
          ],
          [
            77.594937,
            21.118275666666666
          ]
        ]
      },
      "properties": {
        "segment_id": "SEG-000038",
        "highway_name": "unknown",
        "risk_score": 75,
        "confidence": 0.3,
        "observation_count": 31,
        "road_class_score": 2,
        "road_length_km": 30.5,
        "endangered_flag": false
      }
    },
    {
      "type": "Feature",
      "geometry": {
        "type": "LineString",
        "coordinates": [
          [
            77.75310040000001,
            20.89325492
          ],
          [
            77.77924900000001,
            21.05542975
          ]
        ]
      },
      "properties": {
        "segment_id": "SEG-000039",
        "highway_name": "unknown",
        "risk_score": 70,
        "confidence": 0.3,
        "observation_count": 29,
        "road_class_score": 2,
        "road_length_km": 18.2,
        "endangered_flag": false
      }
    },
    {
      "type": "Feature",
      "geometry": {
        "type": "LineString",
        "coordinates": [
          [
            77.75310040000001,
            20.89325492
          ],
          [
            77.58978533333334,
            20.95581866666667
          ]
        ]
      },
      "properties": {
        "segment_id": "SEG-000040",
        "highway_name": "unknown",
        "risk_score": 67,
        "confidence": 0.3,
        "observation_count": 28,
        "road_class_score": 2,
        "road_length_km": 19.4,
        "endangered_flag": false
      }
    },
    {
      "type": "Feature",
      "geometry": {
        "type": "LineString",
        "coordinates": [
          [
            77.89371959230769,
            20.913895023076922
          ],
          [
            77.83243800000001,
            20.998446461538467
          ]
        ]
      },
      "properties": {
        "segment_id": "SEG-000041",
        "highway_name": "SH-243",
        "risk_score": 100,
        "confidence": 0.3,
        "observation_count": 182,
        "road_class_score": 2,
        "road_length_km": 11.6,
        "endangered_flag": false
      }
    },
    {
      "type": "Feature",
      "geometry": {
        "type": "LineString",
        "coordinates": [
          [
            77.89371959230769,
            20.913895023076922
          ],
          [
            77.87316575641026,
            20.88614930769231
          ]
        ]
      },
      "properties": {
        "segment_id": "SEG-000042",
        "highway_name": "SH-243",
        "risk_score": 100,
        "confidence": 0.3,
        "observation_count": 208,
        "road_class_score": 2,
        "road_length_km": 3.8,
        "endangered_flag": false
      }
    },
    {
      "type": "Feature",
      "geometry": {
        "type": "LineString",
        "coordinates": [
          [
            77.89371959230769,
            20.913895023076922
          ],
          [
            77.99402617948718,
            20.935922641025645
          ]
        ]
      },
      "properties": {
        "segment_id": "SEG-000043",
        "highway_name": "SH-243",
        "risk_score": 100,
        "confidence": 0.3,
        "observation_count": 169,
        "road_class_score": 2,
        "road_length_km": 11.4,
        "endangered_flag": false
      }
    },
    {
      "type": "Feature",
      "geometry": {
        "type": "LineString",
        "coordinates": [
          [
            77.89371959230769,
            20.913895023076922
          ],
          [
            77.70905655555555,
            20.99931827777778
          ]
        ]
      },
      "properties": {
        "segment_id": "SEG-000044",
        "highway_name": "SH-243",
        "risk_score": 100,
        "confidence": 0.3,
        "observation_count": 148,
        "road_class_score": 2,
        "road_length_km": 22.6,
        "endangered_flag": false
      }
    },
    {
      "type": "Feature",
      "geometry": {
        "type": "LineString",
        "coordinates": [
          [
            77.89371959230769,
            20.913895023076922
          ],
          [
            78.07366133333333,
            20.9435125
          ]
        ]
      },
      "properties": {
        "segment_id": "SEG-000045",
        "highway_name": "SH-243",
        "risk_score": 95,
        "confidence": 0.3,
        "observation_count": 142,
        "road_class_score": 2,
        "road_length_km": 20.2,
        "endangered_flag": false
      }
    },
    {
      "type": "Feature",
      "geometry": {
        "type": "LineString",
        "coordinates": [
          [
            77.89371959230769,
            20.913895023076922
          ],
          [
            78.1063781111111,
            20.897919666666667
          ]
        ]
      },
      "properties": {
        "segment_id": "SEG-000046",
        "highway_name": "SH-243",
        "risk_score": 87,
        "confidence": 0.3,
        "observation_count": 139,
        "road_class_score": 2,
        "road_length_km": 23.7,
        "endangered_flag": false
      }
    },
    {
      "type": "Feature",
      "geometry": {
        "type": "LineString",
        "coordinates": [
          [
            77.89371959230769,
            20.913895023076922
          ],
          [
            77.77924900000001,
            21.05542975
          ]
        ]
      },
      "properties": {
        "segment_id": "SEG-000047",
        "highway_name": "SH-243",
        "risk_score": 70,
        "confidence": 0.3,
        "observation_count": 134,
        "road_class_score": 2,
        "road_length_km": 20.2,
        "endangered_flag": false
      }
    },
    {
      "type": "Feature",
      "geometry": {
        "type": "LineString",
        "coordinates": [
          [
            77.89371959230769,
            20.913895023076922
          ],
          [
            77.94460000000001,
            20.6584
          ]
        ]
      },
      "properties": {
        "segment_id": "SEG-000048",
        "highway_name": "SH-243",
        "risk_score": 70,
        "confidence": 0.3,
        "observation_count": 134,
        "road_class_score": 2,
        "road_length_km": 28.9,
        "endangered_flag": false
      }
    },
    {
      "type": "Feature",
      "geometry": {
        "type": "LineString",
        "coordinates": [
          [
            77.89371959230769,
            20.913895023076922
          ],
          [
            78.108931,
            21.094826
          ]
        ]
      },
      "properties": {
        "segment_id": "SEG-000049",
        "highway_name": "SH-243",
        "risk_score": 57,
        "confidence": 0.3,
        "observation_count": 131,
        "road_class_score": 2,
        "road_length_km": 31.2,
        "endangered_flag": false
      }
    },
    {
      "type": "Feature",
      "geometry": {
        "type": "LineString",
        "coordinates": [
          [
            77.96878932653061,
            21.252529040816324
          ],
          [
            77.83243800000001,
            20.998446461538467
          ]
        ]
      },
      "properties": {
        "segment_id": "SEG-000050",
        "highway_name": "NH-353K",
        "risk_score": 100,
        "confidence": 0.3,
        "observation_count": 101,
        "road_class_score": 2,
        "road_length_km": 32.0,
        "endangered_flag": false
      }
    },
    {
      "type": "Feature",
      "geometry": {
        "type": "LineString",
        "coordinates": [
          [
            77.96878932653061,
            21.252529040816324
          ],
          [
            78.02438153846153,
            21.24242076923077
          ]
        ]
      },
      "properties": {
        "segment_id": "SEG-000051",
        "highway_name": "NH-353K",
        "risk_score": 97,
        "confidence": 0.3,
        "observation_count": 62,
        "road_class_score": 2,
        "road_length_km": 6.3,
        "endangered_flag": false
      }
    },
    {
      "type": "Feature",
      "geometry": {
        "type": "LineString",
        "coordinates": [
          [
            77.96878932653061,
            21.252529040816324
          ],
          [
            77.9219203,
            21.2867935
          ]
        ]
      },
      "properties": {
        "segment_id": "SEG-000052",
        "highway_name": "NH-353K",
        "risk_score": 85,
        "confidence": 0.3,
        "observation_count": 59,
        "road_class_score": 2,
        "road_length_km": 6.4,
        "endangered_flag": false
      }
    },
    {
      "type": "Feature",
      "geometry": {
        "type": "LineString",
        "coordinates": [
          [
            77.96878932653061,
            21.252529040816324
          ],
          [
            77.77924900000001,
            21.05542975
          ]
        ]
      },
      "properties": {
        "segment_id": "SEG-000053",
        "highway_name": "NH-353K",
        "risk_score": 70,
        "confidence": 0.3,
        "observation_count": 53,
        "road_class_score": 2,
        "road_length_km": 30.4,
        "endangered_flag": false
      }
    },
    {
      "type": "Feature",
      "geometry": {
        "type": "LineString",
        "coordinates": [
          [
            77.96878932653061,
            21.252529040816324
          ],
          [
            78.09126066666666,
            21.407551333333334
          ]
        ]
      },
      "properties": {
        "segment_id": "SEG-000054",
        "highway_name": "NH-353K",
        "risk_score": 62,
        "confidence": 0.3,
        "observation_count": 52,
        "road_class_score": 2,
        "road_length_km": 21.9,
        "endangered_flag": false
      }
    },
    {
      "type": "Feature",
      "geometry": {
        "type": "LineString",
        "coordinates": [
          [
            77.96878932653061,
            21.252529040816324
          ],
          [
            78.1792,
            21.1673
          ]
        ]
      },
      "properties": {
        "segment_id": "SEG-000055",
        "highway_name": "NH-353K",
        "risk_score": 57,
        "confidence": 0.3,
        "observation_count": 50,
        "road_class_score": 2,
        "road_length_km": 25.2,
        "endangered_flag": false
      }
    },
    {
      "type": "Feature",
      "geometry": {
        "type": "LineString",
        "coordinates": [
          [
            77.96878932653061,
            21.252529040816324
          ],
          [
            78.108931,
            21.094826
          ]
        ]
      },
      "properties": {
        "segment_id": "SEG-000056",
        "highway_name": "NH-353K",
        "risk_score": 57,
        "confidence": 0.3,
        "observation_count": 50,
        "road_class_score": 2,
        "road_length_km": 23.4,
        "endangered_flag": false
      }
    },
    {
      "type": "Feature",
      "geometry": {
        "type": "LineString",
        "coordinates": [
          [
            77.83243800000001,
            20.998446461538467
          ],
          [
            77.87316575641026,
            20.88614930769231
          ]
        ]
      },
      "properties": {
        "segment_id": "SEG-000057",
        "highway_name": "NH-7",
        "risk_score": 100,
        "confidence": 0.3,
        "observation_count": 130,
        "road_class_score": 2,
        "road_length_km": 13.3,
        "endangered_flag": false
      }
    },
    {
      "type": "Feature",
      "geometry": {
        "type": "LineString",
        "coordinates": [
          [
            77.83243800000001,
            20.998446461538467
          ],
          [
            77.99402617948718,
            20.935922641025645
          ]
        ]
      },
      "properties": {
        "segment_id": "SEG-000058",
        "highway_name": "NH-7",
        "risk_score": 100,
        "confidence": 0.3,
        "observation_count": 91,
        "road_class_score": 2,
        "road_length_km": 19.2,
        "endangered_flag": false
      }
    },
    {
      "type": "Feature",
      "geometry": {
        "type": "LineString",
        "coordinates": [
          [
            77.83243800000001,
            20.998446461538467
          ],
          [
            77.70905655555555,
            20.99931827777778
          ]
        ]
      },
      "properties": {
        "segment_id": "SEG-000059",
        "highway_name": "NH-7",
        "risk_score": 100,
        "confidence": 0.3,
        "observation_count": 70,
        "road_class_score": 2,
        "road_length_km": 13.7,
        "endangered_flag": false
      }
    },
    {
      "type": "Feature",
      "geometry": {
        "type": "LineString",
        "coordinates": [
          [
            77.83243800000001,
            20.998446461538467
          ],
          [
            78.07366133333333,
            20.9435125
          ]
        ]
      },
      "properties": {
        "segment_id": "SEG-000060",
        "highway_name": "NH-7",
        "risk_score": 95,
        "confidence": 0.3,
        "observation_count": 64,
        "road_class_score": 2,
        "road_length_km": 27.5,
        "endangered_flag": false
      }
    },
    {
      "type": "Feature",
      "geometry": {
        "type": "LineString",
        "coordinates": [
          [
            77.83243800000001,
            20.998446461538467
          ],
          [
            78.1063781111111,
            20.897919666666667
          ]
        ]
      },
      "properties": {
        "segment_id": "SEG-000061",
        "highway_name": "NH-7",
        "risk_score": 87,
        "confidence": 0.3,
        "observation_count": 61,
        "road_class_score": 2,
        "road_length_km": 32.4,
        "endangered_flag": false
      }
    },
    {
      "type": "Feature",
      "geometry": {
        "type": "LineString",
        "coordinates": [
          [
            77.83243800000001,
            20.998446461538467
          ],
          [
            77.594937,
            21.118275666666666
          ]
        ]
      },
      "properties": {
        "segment_id": "SEG-000062",
        "highway_name": "NH-7",
        "risk_score": 75,
        "confidence": 0.3,
        "observation_count": 58,
        "road_class_score": 2,
        "road_length_km": 29.5,
        "endangered_flag": false
      }
    },
    {
      "type": "Feature",
      "geometry": {
        "type": "LineString",
        "coordinates": [
          [
            77.83243800000001,
            20.998446461538467
          ],
          [
            77.77924900000001,
            21.05542975
          ]
        ]
      },
      "properties": {
        "segment_id": "SEG-000063",
        "highway_name": "NH-7",
        "risk_score": 70,
        "confidence": 0.3,
        "observation_count": 56,
        "road_class_score": 2,
        "road_length_km": 8.7,
        "endangered_flag": false
      }
    },
    {
      "type": "Feature",
      "geometry": {
        "type": "LineString",
        "coordinates": [
          [
            77.83243800000001,
            20.998446461538467
          ],
          [
            77.58978533333334,
            20.95581866666667
          ]
        ]
      },
      "properties": {
        "segment_id": "SEG-000064",
        "highway_name": "NH-7",
        "risk_score": 67,
        "confidence": 0.3,
        "observation_count": 55,
        "road_class_score": 2,
        "road_length_km": 27.3,
        "endangered_flag": false
      }
    },
    {
      "type": "Feature",
      "geometry": {
        "type": "LineString",
        "coordinates": [
          [
            77.83243800000001,
            20.998446461538467
          ],
          [
            78.108931,
            21.094826
          ]
        ]
      },
      "properties": {
        "segment_id": "SEG-000065",
        "highway_name": "NH-7",
        "risk_score": 57,
        "confidence": 0.3,
        "observation_count": 53,
        "road_class_score": 2,
        "road_length_km": 32.5,
        "endangered_flag": false
      }
    },
    {
      "type": "Feature",
      "geometry": {
        "type": "LineString",
        "coordinates": [
          [
            77.87316575641026,
            20.88614930769231
          ],
          [
            77.99402617948718,
            20.935922641025645
          ]
        ]
      },
      "properties": {
        "segment_id": "SEG-000066",
        "highway_name": "SH-243",
        "risk_score": 100,
        "confidence": 0.3,
        "observation_count": 117,
        "road_class_score": 2,
        "road_length_km": 14.5,
        "endangered_flag": false
      }
    },
    {
      "type": "Feature",
      "geometry": {
        "type": "LineString",
        "coordinates": [
          [
            77.87316575641026,
            20.88614930769231
          ],
          [
            77.70905655555555,
            20.99931827777778
          ]
        ]
      },
      "properties": {
        "segment_id": "SEG-000067",
        "highway_name": "SH-243",
        "risk_score": 100,
        "confidence": 0.3,
        "observation_count": 96,
        "road_class_score": 2,
        "road_length_km": 22.1,
        "endangered_flag": false
      }
    },
    {
      "type": "Feature",
      "geometry": {
        "type": "LineString",
        "coordinates": [
          [
            77.87316575641026,
            20.88614930769231
          ],
          [
            78.07366133333333,
            20.9435125
          ]
        ]
      },
      "properties": {
        "segment_id": "SEG-000068",
        "highway_name": "SH-243",
        "risk_score": 95,
        "confidence": 0.3,
        "observation_count": 90,
        "road_class_score": 2,
        "road_length_km": 23.1,
        "endangered_flag": false
      }
    },
    {
      "type": "Feature",
      "geometry": {
        "type": "LineString",
        "coordinates": [
          [
            77.87316575641026,
            20.88614930769231
          ],
          [
            78.1063781111111,
            20.897919666666667
          ]
        ]
      },
      "properties": {
        "segment_id": "SEG-000069",
        "highway_name": "SH-243",
        "risk_score": 87,
        "confidence": 0.3,
        "observation_count": 87,
        "road_class_score": 2,
        "road_length_km": 25.9,
        "endangered_flag": false
      }
    },
    {
      "type": "Feature",
      "geometry": {
        "type": "LineString",
        "coordinates": [
          [
            77.87316575641026,
            20.88614930769231
          ],
          [
            77.77924900000001,
            21.05542975
          ]
        ]
      },
      "properties": {
        "segment_id": "SEG-000070",
        "highway_name": "SH-243",
        "risk_score": 70,
        "confidence": 0.3,
        "observation_count": 82,
        "road_class_score": 2,
        "road_length_km": 21.5,
        "endangered_flag": false
      }
    },
    {
      "type": "Feature",
      "geometry": {
        "type": "LineString",
        "coordinates": [
          [
            77.87316575641026,
            20.88614930769231
          ],
          [
            77.94460000000001,
            20.6584
          ]
        ]
      },
      "properties": {
        "segment_id": "SEG-000071",
        "highway_name": "SH-243",
        "risk_score": 70,
        "confidence": 0.3,
        "observation_count": 82,
        "road_class_score": 2,
        "road_length_km": 26.5,
        "endangered_flag": false
      }
    },
    {
      "type": "Feature",
      "geometry": {
        "type": "LineString",
        "coordinates": [
          [
            77.87316575641026,
            20.88614930769231
          ],
          [
            77.58978533333334,
            20.95581866666667
          ]
        ]
      },
      "properties": {
        "segment_id": "SEG-000072",
        "highway_name": "SH-243",
        "risk_score": 67,
        "confidence": 0.3,
        "observation_count": 81,
        "road_class_score": 2,
        "road_length_km": 32.4,
        "endangered_flag": false
      }
    },
    {
      "type": "Feature",
      "geometry": {
        "type": "LineString",
        "coordinates": [
          [
            77.99402617948718,
            20.935922641025645
          ],
          [
            77.70905655555555,
            20.99931827777778
          ]
        ]
      },
      "properties": {
        "segment_id": "SEG-000073",
        "highway_name": "SH-200",
        "risk_score": 100,
        "confidence": 0.3,
        "observation_count": 57,
        "road_class_score": 2,
        "road_length_km": 32.4,
        "endangered_flag": false
      }
    },
    {
      "type": "Feature",
      "geometry": {
        "type": "LineString",
        "coordinates": [
          [
            77.99402617948718,
            20.935922641025645
          ],
          [
            78.07366133333333,
            20.9435125
          ]
        ]
      },
      "properties": {
        "segment_id": "SEG-000074",
        "highway_name": "SH-200",
        "risk_score": 95,
        "confidence": 0.3,
        "observation_count": 51,
        "road_class_score": 2,
        "road_length_km": 8.9,
        "endangered_flag": false
      }
    },
    {
      "type": "Feature",
      "geometry": {
        "type": "LineString",
        "coordinates": [
          [
            77.99402617948718,
            20.935922641025645
          ],
          [
            78.1063781111111,
            20.897919666666667
          ]
        ]
      },
      "properties": {
        "segment_id": "SEG-000075",
        "highway_name": "SH-200",
        "risk_score": 87,
        "confidence": 0.3,
        "observation_count": 48,
        "road_class_score": 2,
        "road_length_km": 13.2,
        "endangered_flag": false
      }
    },
    {
      "type": "Feature",
      "geometry": {
        "type": "LineString",
        "coordinates": [
          [
            77.99402617948718,
            20.935922641025645
          ],
          [
            77.77924900000001,
            21.05542975
          ]
        ]
      },
      "properties": {
        "segment_id": "SEG-000076",
        "highway_name": "SH-200",
        "risk_score": 70,
        "confidence": 0.3,
        "observation_count": 43,
        "road_class_score": 2,
        "road_length_km": 27.3,
        "endangered_flag": false
      }
    },
    {
      "type": "Feature",
      "geometry": {
        "type": "LineString",
        "coordinates": [
          [
            77.99402617948718,
            20.935922641025645
          ],
          [
            77.94460000000001,
            20.6584
          ]
        ]
      },
      "properties": {
        "segment_id": "SEG-000077",
        "highway_name": "SH-200",
        "risk_score": 70,
        "confidence": 0.3,
        "observation_count": 43,
        "road_class_score": 2,
        "road_length_km": 31.3,
        "endangered_flag": false
      }
    },
    {
      "type": "Feature",
      "geometry": {
        "type": "LineString",
        "coordinates": [
          [
            77.99402617948718,
            20.935922641025645
          ],
          [
            78.15204,
            20.723719666666668
          ]
        ]
      },
      "properties": {
        "segment_id": "SEG-000078",
        "highway_name": "SH-200",
        "risk_score": 62,
        "confidence": 0.3,
        "observation_count": 42,
        "road_class_score": 2,
        "road_length_km": 29.4,
        "endangered_flag": false
      }
    },
    {
      "type": "Feature",
      "geometry": {
        "type": "LineString",
        "coordinates": [
          [
            77.99402617948718,
            20.935922641025645
          ],
          [
            78.1792,
            21.1673
          ]
        ]
      },
      "properties": {
        "segment_id": "SEG-000079",
        "highway_name": "SH-200",
        "risk_score": 57,
        "confidence": 0.3,
        "observation_count": 40,
        "road_class_score": 2,
        "road_length_km": 32.9,
        "endangered_flag": false
      }
    },
    {
      "type": "Feature",
      "geometry": {
        "type": "LineString",
        "coordinates": [
          [
            77.99402617948718,
            20.935922641025645
          ],
          [
            78.108931,
            21.094826
          ]
        ]
      },
      "properties": {
        "segment_id": "SEG-000080",
        "highway_name": "SH-200",
        "risk_score": 57,
        "confidence": 0.3,
        "observation_count": 40,
        "road_class_score": 2,
        "road_length_km": 21.8,
        "endangered_flag": false
      }
    },
    {
      "type": "Feature",
      "geometry": {
        "type": "LineString",
        "coordinates": [
          [
            77.70905655555555,
            20.99931827777778
          ],
          [
            77.594937,
            21.118275666666666
          ]
        ]
      },
      "properties": {
        "segment_id": "SEG-000081",
        "highway_name": "SH-242",
        "risk_score": 75,
        "confidence": 0.3,
        "observation_count": 24,
        "road_class_score": 2,
        "road_length_km": 18.3,
        "endangered_flag": false
      }
    },
    {
      "type": "Feature",
      "geometry": {
        "type": "LineString",
        "coordinates": [
          [
            77.70905655555555,
            20.99931827777778
          ],
          [
            77.77924900000001,
            21.05542975
          ]
        ]
      },
      "properties": {
        "segment_id": "SEG-000082",
        "highway_name": "SH-242",
        "risk_score": 70,
        "confidence": 0.3,
        "observation_count": 22,
        "road_class_score": 2,
        "road_length_km": 10.0,
        "endangered_flag": false
      }
    },
    {
      "type": "Feature",
      "geometry": {
        "type": "LineString",
        "coordinates": [
          [
            77.70905655555555,
            20.99931827777778
          ],
          [
            77.58978533333334,
            20.95581866666667
          ]
        ]
      },
      "properties": {
        "segment_id": "SEG-000083",
        "highway_name": "SH-242",
        "risk_score": 67,
        "confidence": 0.3,
        "observation_count": 21,
        "road_class_score": 2,
        "road_length_km": 14.1,
        "endangered_flag": false
      }
    },
    {
      "type": "Feature",
      "geometry": {
        "type": "LineString",
        "coordinates": [
          [
            76.98780812066752,
            10.405793871630294
          ],
          [
            76.95826976293998,
            10.326891301242236
          ]
        ]
      },
      "properties": {
        "segment_id": "SEG-000084",
        "highway_name": "unknown",
        "risk_score": 100,
        "confidence": 0.3,
        "observation_count": 2711,
        "road_class_score": 2,
        "road_length_km": 9.4,
        "endangered_flag": false
      }
    },
    {
      "type": "Feature",
      "geometry": {
        "type": "LineString",
        "coordinates": [
          [
            76.98780812066752,
            10.405793871630294
          ],
          [
            76.94428005195681,
            10.324079672064777
          ]
        ]
      },
      "properties": {
        "segment_id": "SEG-000085",
        "highway_name": "unknown",
        "risk_score": 100,
        "confidence": 0.3,
        "observation_count": 2261,
        "road_class_score": 2,
        "road_length_km": 10.3,
        "endangered_flag": false
      }
    },
    {
      "type": "Feature",
      "geometry": {
        "type": "LineString",
        "coordinates": [
          [
            76.95826976293998,
            10.326891301242236
          ],
          [
            76.94428005195681,
            10.324079672064777
          ]
        ]
      },
      "properties": {
        "segment_id": "SEG-000086",
        "highway_name": "unknown",
        "risk_score": 100,
        "confidence": 0.3,
        "observation_count": 3414,
        "road_class_score": 2,
        "road_length_km": 1.6,
        "endangered_flag": false
      }
    },
    {
      "type": "Feature",
      "geometry": {
        "type": "LineString",
        "coordinates": [
          [
            78.02438153846153,
            21.24242076923077
          ],
          [
            77.9219203,
            21.2867935
          ]
        ]
      },
      "properties": {
        "segment_id": "SEG-000087",
        "highway_name": "NH-353K",
        "risk_score": 82,
        "confidence": 0.3,
        "observation_count": 23,
        "road_class_score": 2,
        "road_length_km": 12.4,
        "endangered_flag": false
      }
    },
    {
      "type": "Feature",
      "geometry": {
        "type": "LineString",
        "coordinates": [
          [
            78.02438153846153,
            21.24242076923077
          ],
          [
            78.09126066666666,
            21.407551333333334
          ]
        ]
      },
      "properties": {
        "segment_id": "SEG-000088",
        "highway_name": "NH-353K",
        "risk_score": 60,
        "confidence": 0.3,
        "observation_count": 16,
        "road_class_score": 2,
        "road_length_km": 19.8,
        "endangered_flag": false
      }
    },
    {
      "type": "Feature",
      "geometry": {
        "type": "LineString",
        "coordinates": [
          [
            78.02438153846153,
            21.24242076923077
          ],
          [
            78.1792,
            21.1673
          ]
        ]
      },
      "properties": {
        "segment_id": "SEG-000089",
        "highway_name": "NH-353K",
        "risk_score": 55,
        "confidence": 0.3,
        "observation_count": 14,
        "road_class_score": 2,
        "road_length_km": 19.1,
        "endangered_flag": false
      }
    },
    {
      "type": "Feature",
      "geometry": {
        "type": "LineString",
        "coordinates": [
          [
            78.02438153846153,
            21.24242076923077
          ],
          [
            78.108931,
            21.094826
          ]
        ]
      },
      "properties": {
        "segment_id": "SEG-000090",
        "highway_name": "NH-353K",
        "risk_score": 55,
        "confidence": 0.3,
        "observation_count": 14,
        "road_class_score": 2,
        "road_length_km": 18.9,
        "endangered_flag": false
      }
    },
    {
      "type": "Feature",
      "geometry": {
        "type": "LineString",
        "coordinates": [
          [
            78.07366133333333,
            20.9435125
          ],
          [
            78.1063781111111,
            20.897919666666667
          ]
        ]
      },
      "properties": {
        "segment_id": "SEG-000091",
        "highway_name": "SH-241",
        "risk_score": 82,
        "confidence": 0.3,
        "observation_count": 21,
        "road_class_score": 2,
        "road_length_km": 6.2,
        "endangered_flag": false
      }
    },
    {
      "type": "Feature",
      "geometry": {
        "type": "LineString",
        "coordinates": [
          [
            78.07366133333333,
            20.9435125
          ],
          [
            78.15204,
            20.723719666666668
          ]
        ]
      },
      "properties": {
        "segment_id": "SEG-000092",
        "highway_name": "SH-241",
        "risk_score": 57,
        "confidence": 0.3,
        "observation_count": 15,
        "road_class_score": 2,
        "road_length_km": 25.9,
        "endangered_flag": false
      }
    },
    {
      "type": "Feature",
      "geometry": {
        "type": "LineString",
        "coordinates": [
          [
            78.07366133333333,
            20.9435125
          ],
          [
            78.1792,
            21.1673
          ]
        ]
      },
      "properties": {
        "segment_id": "SEG-000093",
        "highway_name": "SH-241",
        "risk_score": 52,
        "confidence": 0.3,
        "observation_count": 13,
        "road_class_score": 2,
        "road_length_km": 27.5,
        "endangered_flag": false
      }
    },
    {
      "type": "Feature",
      "geometry": {
        "type": "LineString",
        "coordinates": [
          [
            78.07366133333333,
            20.9435125
          ],
          [
            78.108931,
            21.094826
          ]
        ]
      },
      "properties": {
        "segment_id": "SEG-000094",
        "highway_name": "SH-241",
        "risk_score": 52,
        "confidence": 0.3,
        "observation_count": 13,
        "road_class_score": 2,
        "road_length_km": 17.2,
        "endangered_flag": false
      }
    },
    {
      "type": "Feature",
      "geometry": {
        "type": "LineString",
        "coordinates": [
          [
            78.68935864285716,
            17.526211071428573
          ],
          [
            78.66037630769232,
            17.470472615384615
          ]
        ]
      },
      "properties": {
        "segment_id": "SEG-000095",
        "highway_name": "unknown",
        "risk_score": 77,
        "confidence": 0.3,
        "observation_count": 27,
        "road_class_score": 2,
        "road_length_km": 7.0,
        "endangered_flag": false
      }
    },
    {
      "type": "Feature",
      "geometry": {
        "type": "LineString",
        "coordinates": [
          [
            78.68935864285716,
            17.526211071428573
          ],
          [
            78.72032542857144,
            17.51971557142857
          ]
        ]
      },
      "properties": {
        "segment_id": "SEG-000096",
        "highway_name": "unknown",
        "risk_score": 62,
        "confidence": 0.3,
        "observation_count": 21,
        "road_class_score": 2,
        "road_length_km": 3.5,
        "endangered_flag": false
      }
    },
    {
      "type": "Feature",
      "geometry": {
        "type": "LineString",
        "coordinates": [
          [
            78.66037630769232,
            17.470472615384615
          ],
          [
            78.72032542857144,
            17.51971557142857
          ]
        ]
      },
      "properties": {
        "segment_id": "SEG-000097",
        "highway_name": "unknown",
        "risk_score": 60,
        "confidence": 0.3,
        "observation_count": 20,
        "road_class_score": 2,
        "road_length_km": 8.6,
        "endangered_flag": false
      }
    },
    {
      "type": "Feature",
      "geometry": {
        "type": "LineString",
        "coordinates": [
          [
            71.18047985714286,
            21.625541428571427
          ],
          [
            71.107431,
            21.36299
          ]
        ]
      },
      "properties": {
        "segment_id": "SEG-000098",
        "highway_name": "unknown",
        "risk_score": 45,
        "confidence": 0.3,
        "observation_count": 8,
        "road_class_score": 2,
        "road_length_km": 30.3,
        "endangered_flag": false
      }
    },
    {
      "type": "Feature",
      "geometry": {
        "type": "LineString",
        "coordinates": [
          [
            78.1063781111111,
            20.897919666666667
          ],
          [
            77.94460000000001,
            20.6584
          ]
        ]
      },
      "properties": {
        "segment_id": "SEG-000099",
        "highway_name": "SH-237",
        "risk_score": 57,
        "confidence": 0.3,
        "observation_count": 13,
        "road_class_score": 2,
        "road_length_km": 32.1,
        "endangered_flag": false
      }
    },
    {
      "type": "Feature",
      "geometry": {
        "type": "LineString",
        "coordinates": [
          [
            78.1063781111111,
            20.897919666666667
          ],
          [
            78.15204,
            20.723719666666668
          ]
        ]
      },
      "properties": {
        "segment_id": "SEG-000100",
        "highway_name": "SH-237",
        "risk_score": 50,
        "confidence": 0.3,
        "observation_count": 12,
        "road_class_score": 2,
        "road_length_km": 20.0,
        "endangered_flag": false
      }
    },
    {
      "type": "Feature",
      "geometry": {
        "type": "LineString",
        "coordinates": [
          [
            78.1063781111111,
            20.897919666666667
          ],
          [
            78.1792,
            21.1673
          ]
        ]
      },
      "properties": {
        "segment_id": "SEG-000101",
        "highway_name": "SH-237",
        "risk_score": 45,
        "confidence": 0.3,
        "observation_count": 10,
        "road_class_score": 2,
        "road_length_km": 31.0,
        "endangered_flag": false
      }
    },
    {
      "type": "Feature",
      "geometry": {
        "type": "LineString",
        "coordinates": [
          [
            78.1063781111111,
            20.897919666666667
          ],
          [
            78.108931,
            21.094826
          ]
        ]
      },
      "properties": {
        "segment_id": "SEG-000102",
        "highway_name": "SH-237",
        "risk_score": 45,
        "confidence": 0.3,
        "observation_count": 10,
        "road_class_score": 2,
        "road_length_km": 21.9,
        "endangered_flag": false
      }
    },
    {
      "type": "Feature",
      "geometry": {
        "type": "LineString",
        "coordinates": [
          [
            77.9219203,
            21.2867935
          ],
          [
            77.77924900000001,
            21.05542975
          ]
        ]
      },
      "properties": {
        "segment_id": "SEG-000103",
        "highway_name": "unknown",
        "risk_score": 55,
        "confidence": 0.3,
        "observation_count": 14,
        "road_class_score": 2,
        "road_length_km": 30.2,
        "endangered_flag": false
      }
    },
    {
      "type": "Feature",
      "geometry": {
        "type": "LineString",
        "coordinates": [
          [
            77.9219203,
            21.2867935
          ],
          [
            78.09126066666666,
            21.407551333333334
          ]
        ]
      },
      "properties": {
        "segment_id": "SEG-000104",
        "highway_name": "unknown",
        "risk_score": 47,
        "confidence": 0.3,
        "observation_count": 13,
        "road_class_score": 2,
        "road_length_km": 23.1,
        "endangered_flag": false
      }
    },
    {
      "type": "Feature",
      "geometry": {
        "type": "LineString",
        "coordinates": [
          [
            77.9219203,
            21.2867935
          ],
          [
            78.1792,
            21.1673
          ]
        ]
      },
      "properties": {
        "segment_id": "SEG-000105",
        "highway_name": "unknown",
        "risk_score": 42,
        "confidence": 0.3,
        "observation_count": 11,
        "road_class_score": 2,
        "road_length_km": 31.5,
        "endangered_flag": false
      }
    },
    {
      "type": "Feature",
      "geometry": {
        "type": "LineString",
        "coordinates": [
          [
            77.9219203,
            21.2867935
          ],
          [
            78.108931,
            21.094826
          ]
        ]
      },
      "properties": {
        "segment_id": "SEG-000106",
        "highway_name": "unknown",
        "risk_score": 42,
        "confidence": 0.3,
        "observation_count": 11,
        "road_class_score": 2,
        "road_length_km": 29.7,
        "endangered_flag": false
      }
    },
    {
      "type": "Feature",
      "geometry": {
        "type": "LineString",
        "coordinates": [
          [
            72.85995616666666,
            21.9534745
          ],
          [
            72.91243333333334,
            21.876521333333333
          ]
        ]
      },
      "properties": {
        "segment_id": "SEG-000107",
        "highway_name": "SH-6",
        "risk_score": 47,
        "confidence": 0.3,
        "observation_count": 9,
        "road_class_score": 2,
        "road_length_km": 10.3,
        "endangered_flag": false
      }
    },
    {
      "type": "Feature",
      "geometry": {
        "type": "LineString",
        "coordinates": [
          [
            72.85995616666666,
            21.9534745
          ],
          [
            72.676171,
            22.181469
          ]
        ]
      },
      "properties": {
        "segment_id": "SEG-000108",
        "highway_name": "SH-6",
        "risk_score": 37,
        "confidence": 0.3,
        "observation_count": 7,
        "road_class_score": 2,
        "road_length_km": 32.5,
        "endangered_flag": false
      }
    },
    {
      "type": "Feature",
      "geometry": {
        "type": "LineString",
        "coordinates": [
          [
            77.594937,
            21.118275666666666
          ],
          [
            77.77924900000001,
            21.05542975
          ]
        ]
      },
      "properties": {
        "segment_id": "SEG-000109",
        "highway_name": "SH-6",
        "risk_score": 45,
        "confidence": 0.3,
        "observation_count": 10,
        "road_class_score": 2,
        "road_length_km": 21.6,
        "endangered_flag": false
      }
    },
    {
      "type": "Feature",
      "geometry": {
        "type": "LineString",
        "coordinates": [
          [
            77.594937,
            21.118275666666666
          ],
          [
            77.58978533333334,
            20.95581866666667
          ]
        ]
      },
      "properties": {
        "segment_id": "SEG-000110",
        "highway_name": "SH-6",
        "risk_score": 42,
        "confidence": 0.3,
        "observation_count": 9,
        "road_class_score": 2,
        "road_length_km": 18.0,
        "endangered_flag": false
      }
    },
    {
      "type": "Feature",
      "geometry": {
        "type": "LineString",
        "coordinates": [
          [
            77.594937,
            21.118275666666666
          ],
          [
            77.3144,
            21.0392
          ]
        ]
      },
      "properties": {
        "segment_id": "SEG-000111",
        "highway_name": "SH-6",
        "risk_score": 32,
        "confidence": 0.3,
        "observation_count": 7,
        "road_class_score": 2,
        "road_length_km": 32.4,
        "endangered_flag": false
      }
    },
    {
      "type": "Feature",
      "geometry": {
        "type": "LineString",
        "coordinates": [
          [
            72.02994866666666,
            22.029674333333332
          ],
          [
            71.839449,
            22.217286
          ]
        ]
      },
      "properties": {
        "segment_id": "SEG-000112",
        "highway_name": "unknown",
        "risk_score": 30,
        "confidence": 0.3,
        "observation_count": 4,
        "road_class_score": 2,
        "road_length_km": 29.7,
        "endangered_flag": false
      }
    },
    {
      "type": "Feature",
      "geometry": {
        "type": "LineString",
        "coordinates": [
          [
            77.77924900000001,
            21.05542975
          ],
          [
            77.58978533333334,
            20.95581866666667
          ]
        ]
      },
      "properties": {
        "segment_id": "SEG-000113",
        "highway_name": "unknown",
        "risk_score": 37,
        "confidence": 0.3,
        "observation_count": 7,
        "road_class_score": 2,
        "road_length_km": 23.8,
        "endangered_flag": false
      }
    },
    {
      "type": "Feature",
      "geometry": {
        "type": "LineString",
        "coordinates": [
          [
            77.94460000000001,
            20.6584
          ],
          [
            78.15204,
            20.723719666666668
          ]
        ]
      },
      "properties": {
        "segment_id": "SEG-000114",
        "highway_name": "unknown",
        "risk_score": 32,
        "confidence": 0.3,
        "observation_count": 7,
        "road_class_score": 2,
        "road_length_km": 24.1,
        "endangered_flag": false
      }
    },
    {
      "type": "Feature",
      "geometry": {
        "type": "LineString",
        "coordinates": [
          [
            77.94460000000001,
            20.6584
          ],
          [
            77.85753,
            20.579962
          ]
        ]
      },
      "properties": {
        "segment_id": "SEG-000115",
        "highway_name": "unknown",
        "risk_score": 27,
        "confidence": 0.3,
        "observation_count": 5,
        "road_class_score": 2,
        "road_length_km": 13.0,
        "endangered_flag": false
      }
    },
    {
      "type": "Feature",
      "geometry": {
        "type": "LineString",
        "coordinates": [
          [
            72.90920866666666,
            20.92426233333333
          ],
          [
            72.934091,
            21.218663
          ]
        ]
      },
      "properties": {
        "segment_id": "SEG-000116",
        "highway_name": "unknown",
        "risk_score": 25,
        "confidence": 0.3,
        "observation_count": 4,
        "road_class_score": 2,
        "road_length_km": 32.8,
        "endangered_flag": false
      }
    },
    {
      "type": "Feature",
      "geometry": {
        "type": "LineString",
        "coordinates": [
          [
            72.90920866666666,
            20.92426233333333
          ],
          [
            72.728663,
            21.101605
          ]
        ]
      },
      "properties": {
        "segment_id": "SEG-000117",
        "highway_name": "unknown",
        "risk_score": 25,
        "confidence": 0.3,
        "observation_count": 4,
        "road_class_score": 2,
        "road_length_km": 28.1,
        "endangered_flag": false
      }
    },
    {
      "type": "Feature",
      "geometry": {
        "type": "LineString",
        "coordinates": [
          [
            77.58978533333334,
            20.95581866666667
          ],
          [
            77.3144,
            21.0392
          ]
        ]
      },
      "properties": {
        "segment_id": "SEG-000118",
        "highway_name": "SH-194",
        "risk_score": 25,
        "confidence": 0.3,
        "observation_count": 4,
        "road_class_score": 2,
        "road_length_km": 31.9,
        "endangered_flag": false
      }
    },
    {
      "type": "Feature",
      "geometry": {
        "type": "LineString",
        "coordinates": [
          [
            76.9845095,
            21.5362045
          ],
          [
            77.270093,
            21.496526
          ]
        ]
      },
      "properties": {
        "segment_id": "SEG-000119",
        "highway_name": "SH-6",
        "risk_score": 22,
        "confidence": 0.3,
        "observation_count": 3,
        "road_class_score": 2,
        "road_length_km": 32.0,
        "endangered_flag": false
      }
    },
    {
      "type": "Feature",
      "geometry": {
        "type": "LineString",
        "coordinates": [
          [
            78.09126066666666,
            21.407551333333334
          ],
          [
            78.271694,
            21.476699
          ]
        ]
      },
      "properties": {
        "segment_id": "SEG-000120",
        "highway_name": "unknown",
        "risk_score": 20,
        "confidence": 0.3,
        "observation_count": 4,
        "road_class_score": 2,
        "road_length_km": 21.4,
        "endangered_flag": false
      }
    },
    {
      "type": "Feature",
      "geometry": {
        "type": "LineString",
        "coordinates": [
          [
            78.09126066666666,
            21.407551333333334
          ],
          [
            78.1792,
            21.1673
          ]
        ]
      },
      "properties": {
        "segment_id": "SEG-000121",
        "highway_name": "unknown",
        "risk_score": 20,
        "confidence": 0.3,
        "observation_count": 4,
        "road_class_score": 2,
        "road_length_km": 28.4,
        "endangered_flag": false
      }
    },
    {
      "type": "Feature",
      "geometry": {
        "type": "LineString",
        "coordinates": [
          [
            74.53066,
            21.432852500000003
          ],
          [
            74.675942,
            21.418425
          ]
        ]
      },
      "properties": {
        "segment_id": "SEG-000122",
        "highway_name": "NH-160H",
        "risk_score": 17,
        "confidence": 0.3,
        "observation_count": 3,
        "road_class_score": 2,
        "road_length_km": 16.2,
        "endangered_flag": false
      }
    },
    {
      "type": "Feature",
      "geometry": {
        "type": "LineString",
        "coordinates": [
          [
            74.53066,
            21.432852500000003
          ],
          [
            74.728037,
            21.294268
          ]
        ]
      },
      "properties": {
        "segment_id": "SEG-000123",
        "highway_name": "NH-160H",
        "risk_score": 17,
        "confidence": 0.3,
        "observation_count": 3,
        "road_class_score": 2,
        "road_length_km": 26.8,
        "endangered_flag": false
      }
    },
    {
      "type": "Feature",
      "geometry": {
        "type": "LineString",
        "coordinates": [
          [
            74.675942,
            21.418425
          ],
          [
            74.728037,
            21.294268
          ]
        ]
      },
      "properties": {
        "segment_id": "SEG-000124",
        "highway_name": "NH-753BE",
        "risk_score": 15,
        "confidence": 0.3,
        "observation_count": 2,
        "road_class_score": 2,
        "road_length_km": 14.9,
        "endangered_flag": false
      }
    },
    {
      "type": "Feature",
      "geometry": {
        "type": "LineString",
        "coordinates": [
          [
            72.934091,
            21.218663
          ],
          [
            72.728663,
            21.101605
          ]
        ]
      },
      "properties": {
        "segment_id": "SEG-000125",
        "highway_name": "unknown",
        "risk_score": 15,
        "confidence": 0.3,
        "observation_count": 2,
        "road_class_score": 2,
        "road_length_km": 26.2,
        "endangered_flag": false
      }
    },
    {
      "type": "Feature",
      "geometry": {
        "type": "LineString",
        "coordinates": [
          [
            73.198968,
            22.243617
          ],
          [
            73.274235,
            22.315596
          ]
        ]
      },
      "properties": {
        "segment_id": "SEG-000126",
        "highway_name": "unknown",
        "risk_score": 15,
        "confidence": 0.3,
        "observation_count": 2,
        "road_class_score": 2,
        "road_length_km": 11.6,
        "endangered_flag": false
      }
    },
    {
      "type": "Feature",
      "geometry": {
        "type": "LineString",
        "coordinates": [
          [
            73.198968,
            22.243617
          ],
          [
            73.384369,
            22.380345
          ]
        ]
      },
      "properties": {
        "segment_id": "SEG-000127",
        "highway_name": "unknown",
        "risk_score": 15,
        "confidence": 0.3,
        "observation_count": 2,
        "road_class_score": 2,
        "road_length_km": 25.6,
        "endangered_flag": false
      }
    },
    {
      "type": "Feature",
      "geometry": {
        "type": "LineString",
        "coordinates": [
          [
            70.499511,
            21.362015
          ],
          [
            70.482606,
            21.525919
          ]
        ]
      },
      "properties": {
        "segment_id": "SEG-000128",
        "highway_name": "unknown",
        "risk_score": 15,
        "confidence": 0.3,
        "observation_count": 2,
        "road_class_score": 2,
        "road_length_km": 18.3,
        "endangered_flag": false
      }
    },
    {
      "type": "Feature",
      "geometry": {
        "type": "LineString",
        "coordinates": [
          [
            70.76862,
            20.965404
          ],
          [
            70.649868,
            21.04239
          ]
        ]
      },
      "properties": {
        "segment_id": "SEG-000129",
        "highway_name": "unknown",
        "risk_score": 15,
        "confidence": 0.3,
        "observation_count": 2,
        "road_class_score": 2,
        "road_length_km": 15.7,
        "endangered_flag": false
      }
    },
    {
      "type": "Feature",
      "geometry": {
        "type": "LineString",
        "coordinates": [
          [
            71.030325,
            21.254596
          ],
          [
            71.107431,
            21.36299
          ]
        ]
      },
      "properties": {
        "segment_id": "SEG-000130",
        "highway_name": "unknown",
        "risk_score": 15,
        "confidence": 0.3,
        "observation_count": 2,
        "road_class_score": 2,
        "road_length_km": 14.8,
        "endangered_flag": false
      }
    },
    {
      "type": "Feature",
      "geometry": {
        "type": "LineString",
        "coordinates": [
          [
            69.511676,
            23.766017
          ],
          [
            69.587937,
            23.688327
          ]
        ]
      },
      "properties": {
        "segment_id": "SEG-000131",
        "highway_name": "unknown",
        "risk_score": 15,
        "confidence": 0.3,
        "observation_count": 2,
        "road_class_score": 2,
        "road_length_km": 12.1,
        "endangered_flag": false
      }
    },
    {
      "type": "Feature",
      "geometry": {
        "type": "LineString",
        "coordinates": [
          [
            88.247923,
            22.117329
          ],
          [
            88.28724,
            22.317593
          ]
        ]
      },
      "properties": {
        "segment_id": "SEG-000132",
        "highway_name": "unknown",
        "risk_score": 15,
        "confidence": 0.3,
        "observation_count": 2,
        "road_class_score": 2,
        "road_length_km": 22.7,
        "endangered_flag": false
      }
    },
    {
      "type": "Feature",
      "geometry": {
        "type": "LineString",
        "coordinates": [
          [
            73.274235,
            22.315596
          ],
          [
            73.384369,
            22.380345
          ]
        ]
      },
      "properties": {
        "segment_id": "SEG-000133",
        "highway_name": "unknown",
        "risk_score": 15,
        "confidence": 0.3,
        "observation_count": 2,
        "road_class_score": 2,
        "road_length_km": 14.2,
        "endangered_flag": false
      }
    },
    {
      "type": "Feature",
      "geometry": {
        "type": "LineString",
        "coordinates": [
          [
            75.919399,
            17.814477
          ],
          [
            76.050287,
            17.993327
          ]
        ]
      },
      "properties": {
        "segment_id": "SEG-000134",
        "highway_name": "unknown",
        "risk_score": 15,
        "confidence": 0.3,
        "observation_count": 2,
        "road_class_score": 2,
        "road_length_km": 24.6,
        "endangered_flag": false
      }
    },
    {
      "type": "Feature",
      "geometry": {
        "type": "LineString",
        "coordinates": [
          [
            76.931568,
            20.687854
          ],
          [
            76.744293,
            20.814016
          ]
        ]
      },
      "properties": {
        "segment_id": "SEG-000135",
        "highway_name": "unknown",
        "risk_score": 15,
        "confidence": 0.3,
        "observation_count": 2,
        "road_class_score": 2,
        "road_length_km": 25.1,
        "endangered_flag": false
      }
    },
    {
      "type": "Feature",
      "geometry": {
        "type": "LineString",
        "coordinates": [
          [
            77.305053,
            21.399302
          ],
          [
            77.4127,
            21.3843
          ]
        ]
      },
      "properties": {
        "segment_id": "SEG-000136",
        "highway_name": "unknown",
        "risk_score": 15,
        "confidence": 0.3,
        "observation_count": 2,
        "road_class_score": 2,
        "road_length_km": 12.1,
        "endangered_flag": false
      }
    },
    {
      "type": "Feature",
      "geometry": {
        "type": "LineString",
        "coordinates": [
          [
            77.305053,
            21.399302
          ],
          [
            77.270093,
            21.496526
          ]
        ]
      },
      "properties": {
        "segment_id": "SEG-000137",
        "highway_name": "unknown",
        "risk_score": 15,
        "confidence": 0.3,
        "observation_count": 2,
        "road_class_score": 2,
        "road_length_km": 11.5,
        "endangered_flag": false
      }
    },
    {
      "type": "Feature",
      "geometry": {
        "type": "LineString",
        "coordinates": [
          [
            78.382942,
            21.548872
          ],
          [
            78.271694,
            21.476699
          ]
        ]
      },
      "properties": {
        "segment_id": "SEG-000138",
        "highway_name": "unknown",
        "risk_score": 15,
        "confidence": 0.3,
        "observation_count": 2,
        "road_class_score": 2,
        "road_length_km": 14.7,
        "endangered_flag": false
      }
    },
    {
      "type": "Feature",
      "geometry": {
        "type": "LineString",
        "coordinates": [
          [
            77.4127,
            21.3843
          ],
          [
            77.270093,
            21.496526
          ]
        ]
      },
      "properties": {
        "segment_id": "SEG-000139",
        "highway_name": "unknown",
        "risk_score": 15,
        "confidence": 0.3,
        "observation_count": 2,
        "road_class_score": 2,
        "road_length_km": 20.1,
        "endangered_flag": false
      }
    },
    {
      "type": "Feature",
      "geometry": {
        "type": "LineString",
        "coordinates": [
          [
            78.1792,
            21.1673
          ],
          [
            78.108931,
            21.094826
          ]
        ]
      },
      "properties": {
        "segment_id": "SEG-000140",
        "highway_name": "unknown",
        "risk_score": 15,
        "confidence": 0.3,
        "observation_count": 2,
        "road_class_score": 2,
        "road_length_km": 11.2,
        "endangered_flag": false
      }
    }
  ]
}